{
  "links" : {
    "next" : "https://api.nasa.gov/neo/rest/v1/neo/browse?page=31&size=20&api_key=jqAGvNAwUIBu4fl9FSOjdm3V4F7hIglRzI6pdX9d",
    "prev" : "https://api.nasa.gov/neo/rest/v1/neo/browse?page=29&size=20&api_key=jqAGvNAwUIBu4fl9FSOjdm3V4F7hIglRzI6pdX9d",
    "self" : "https://api.nasa.gov/neo/rest/v1/neo/browse?page=30&size=20&api_key=jqAGvNAwUIBu4fl9FSOjdm3V4F7hIglRzI6pdX9d"
  },
  "page" : {
    "size" : 20,
    "total_elements" : 20750,
    "total_pages" : 1038,
    "number" : 30
  },
  "near_earth_objects" : [ {
    "links" : {
      "self" : "https://api.nasa.gov/neo/rest/v1/neo/3366075?api_key=jqAGvNAwUIBu4fl9FSOjdm3V4F7hIglRzI6pdX9d"
    },
    "neo_reference_id" : "3366075",
    "name" : "(2007 AC12)",
    "designation" : "2007 AC12",
    "nasa_jpl_url" : "http://ssd.jpl.nasa.gov/sbdb.cgi?sstr=3366075",
    "absolute_magnitude_h" : 17.8,
    "estimated_diameter" : {
      "kilometers" : {
        "estimated_diameter_min" : 0.7320739893,
        "estimated_diameter_max" : 1.6369672047
      },
      "meters" : {
        "estimated_diameter_min" : 732.0739893473,
        "estimated_diameter_max" : 1636.96720474
      },
      "miles" : {
        "estimated_diameter_min" : 0.4548895468,
        "estimated_diameter_max" : 1.017163949
      },
      "feet" : {
        "estimated_diameter_min" : 2401.8176272101,
        "estimated_diameter_max" : 5370.6274839991
      }
    },
    "is_potentially_hazardous_asteroid" : false,
    "close_approach_data" : [ ],
    "orbital_data" : {
      "orbit_id" : "10",
      "orbit_determination_date" : "2017-04-06 09:07:12",
      "first_observation_date" : "2007-01-10",
      "last_observation_date" : "2007-03-12",
      "data_arc_in_days" : 61,
      "observations_used" : 46,
      "orbit_uncertainty" : "7",
      "minimum_orbit_intersection" : ".270284",
      "jupiter_tisserand_invariant" : "2.988",
      "epoch_osculation" : "2458600.5",
      "eccentricity" : ".5478237011152802",
      "semi_major_axis" : "2.783843098908705",
      "inclination" : "23.93238279858654",
      "ascending_node_longitude" : "51.30947504495019",
      "orbital_period" : "1696.545682128741",
      "perihelion_distance" : "1.258787869140307",
      "perihelion_argument" : "3.869833973050389",
      "aphelion_distance" : "4.308898328677103",
      "perihelion_time" : "2459200.445749063182",
      "mean_anomaly" : "232.6939852325437",
      "mean_motion" : ".2121958776543465",
      "equinox" : "J2000",
      "orbit_class" : {
        "orbit_class_type" : "AMO",
        "orbit_class_range" : "1.017 AU < q (perihelion) < 1.3 AU",
        "orbit_class_description" : "Near-Earth asteroid orbits similar to that of 1221 Amor"
      }
    },
    "is_sentry_object" : false
  }, {
    "links" : {
      "self" : "https://api.nasa.gov/neo/rest/v1/neo/3366605?api_key=jqAGvNAwUIBu4fl9FSOjdm3V4F7hIglRzI6pdX9d"
    },
    "neo_reference_id" : "3366605",
    "name" : "(2007 BJ)",
    "designation" : "2007 BJ",
    "nasa_jpl_url" : "http://ssd.jpl.nasa.gov/sbdb.cgi?sstr=3366605",
    "absolute_magnitude_h" : 22.6,
    "estimated_diameter" : {
      "kilometers" : {
        "estimated_diameter_min" : 0.0802703167,
        "estimated_diameter_max" : 0.1794898848
      },
      "meters" : {
        "estimated_diameter_min" : 80.2703167283,
        "estimated_diameter_max" : 179.4898847799
      },
      "miles" : {
        "estimated_diameter_min" : 0.049877647,
        "estimated_diameter_max" : 0.1115298092
      },
      "feet" : {
        "estimated_diameter_min" : 263.3540659348,
        "estimated_diameter_max" : 588.8775935812
      }
    },
    "is_potentially_hazardous_asteroid" : false,
    "close_approach_data" : [ {
      "close_approach_date" : "2007-01-16",
      "epoch_date_close_approach" : 1168934400000,
      "relative_velocity" : {
        "kilometers_per_second" : "27.2561034178",
        "kilometers_per_hour" : "98121.9723039698",
        "miles_per_hour" : "60969.1777352084"
      },
      "miss_distance" : {
        "astronomical" : "0.0844765234",
        "lunar" : "32.861366272",
        "kilometers" : "12637508",
        "miles" : "7852583.5"
      },
      "orbiting_body" : "Earth"
    } ],
    "orbital_data" : {
      "orbit_id" : "9",
      "orbit_determination_date" : "2017-04-06 09:07:12",
      "first_observation_date" : "2007-01-19",
      "last_observation_date" : "2007-01-28",
      "data_arc_in_days" : 9,
      "observations_used" : 36,
      "orbit_uncertainty" : "9",
      "minimum_orbit_intersection" : ".0830736",
      "jupiter_tisserand_invariant" : "2.528",
      "epoch_osculation" : "2454122.5",
      "eccentricity" : ".6856152361631169",
      "semi_major_axis" : "2.998447949262972",
      "inclination" : "44.17593136938511",
      "ascending_node_longitude" : "298.675511965673",
      "orbital_period" : "1896.457865429926",
      "perihelion_distance" : ".9426663504062258",
      "perihelion_argument" : "134.0369455134814",
      "aphelion_distance" : "5.054229548119718",
      "perihelion_time" : "2454083.493251024659",
      "mean_anomaly" : "7.404556614253777",
      "mean_motion" : ".1898275762210979",
      "equinox" : "J2000",
      "orbit_class" : {
        "orbit_class_type" : "APO",
        "orbit_class_range" : "a (semi-major axis) > 1.0 AU; q (perihelion) < 1.017 AU",
        "orbit_class_description" : "Near-Earth asteroid orbits which cross the Earth’s orbit similar to that of 1862 Apollo"
      }
    },
    "is_sentry_object" : false
  }, {
    "links" : {
      "self" : "https://api.nasa.gov/neo/rest/v1/neo/3367129?api_key=jqAGvNAwUIBu4fl9FSOjdm3V4F7hIglRzI6pdX9d"
    },
    "neo_reference_id" : "3367129",
    "name" : "(2007 BA49)",
    "designation" : "2007 BA49",
    "nasa_jpl_url" : "http://ssd.jpl.nasa.gov/sbdb.cgi?sstr=3367129",
    "absolute_magnitude_h" : 24.8,
    "estimated_diameter" : {
      "kilometers" : {
        "estimated_diameter_min" : 0.0291443905,
        "estimated_diameter_max" : 0.0651688382
      },
      "meters" : {
        "estimated_diameter_min" : 29.1443904535,
        "estimated_diameter_max" : 65.1688382168
      },
      "miles" : {
        "estimated_diameter_min" : 0.018109479,
        "estimated_diameter_max" : 0.0404940262
      },
      "feet" : {
        "estimated_diameter_min" : 95.6180819754,
        "estimated_diameter_max" : 213.8085311752
      }
    },
    "is_potentially_hazardous_asteroid" : false,
    "close_approach_data" : [ {
      "close_approach_date" : "2007-01-14",
      "epoch_date_close_approach" : 1168761600000,
      "relative_velocity" : {
        "kilometers_per_second" : "7.1675452122",
        "kilometers_per_hour" : "25803.1627638198",
        "miles_per_hour" : "16033.0818851079"
      },
      "miss_distance" : {
        "astronomical" : "0.0651050081",
        "lunar" : "25.3258476257",
        "kilometers" : "9739570",
        "miles" : "6051888.5"
      },
      "orbiting_body" : "Earth"
    } ],
    "orbital_data" : {
      "orbit_id" : "7",
      "orbit_determination_date" : "2017-04-06 09:07:08",
      "first_observation_date" : "2007-01-27",
      "last_observation_date" : "2007-02-06",
      "data_arc_in_days" : 10,
      "observations_used" : 25,
      "orbit_uncertainty" : "8",
      "minimum_orbit_intersection" : ".0580268",
      "jupiter_tisserand_invariant" : "3.065",
      "epoch_osculation" : "2454130.5",
      "eccentricity" : ".6142818176075537",
      "semi_major_axis" : "2.696965974726939",
      "inclination" : "1.082437146167663",
      "ascending_node_longitude" : "140.9441402088535",
      "orbital_period" : "1617.75081739132",
      "perihelion_distance" : "1.040268813745947",
      "perihelion_argument" : "323.9475613770868",
      "aphelion_distance" : "4.35366313570793",
      "perihelion_time" : "2454108.520638354798",
      "mean_anomaly" : "4.891093305106172",
      "mean_motion" : ".2225311810260821",
      "equinox" : "J2000",
      "orbit_class" : {
        "orbit_class_type" : "AMO",
        "orbit_class_range" : "1.017 AU < q (perihelion) < 1.3 AU",
        "orbit_class_description" : "Near-Earth asteroid orbits similar to that of 1221 Amor"
      }
    },
    "is_sentry_object" : false
  } ]
}